[{"OBJECT_NAME":"KUIPER-00062","OBJECT_ID":"2025-134Y","EPOCH":"2026-03-07T06:27:34.238592","MEAN_MOTION":14.80279447,"ECCENTRICITY":0.00013782,"INCLINATION":51.8908,"RA_OF_ASC_NODE":241.325,"ARG_OF_PERICENTER":72.9133,"MEAN_ANOMALY":287.198,"EPHEMERIS_TYPE":0,"CLASSIFICATION_TYPE":"U","NORAD_CAT_ID":64522,"ELEMENT_SET_NO":999,"REV_AT_EPOCH":3975,"BSTAR":0.012472124,"MEAN_MOTION_DOT":0.00097041,"MEAN_MOTION_DDOT":0},{"OBJECT_NAME":"KUIPER-00063","OBJECT_ID":"2025-134Z","EPOCH":"2026-03-07T06:00:00.999648","MEAN_MOTION":14.80366771,"ECCENTRICITY":4.83e-5,"INCLINATION":51.9011,"RA_OF_ASC_NODE":248.889,"ARG_OF_PERICENTER":57.6657,"MEAN_ANOMALY":240.6535,"EPHEMERIS_TYPE":0,"CLASSIFICATION_TYPE":"U","NORAD_CAT_ID":64523,"ELEMENT_SET_NO":999,"REV_AT_EPOCH":571,"BSTAR":-0.00073643524,"MEAN_MOTION_DOT":-5.889e-5,"MEAN_MOTION_DDOT":0},{"OBJECT_NAME":"KUIPER-00064","OBJECT_ID":"2025-134AA","EPOCH":"2026-03-07T04:43:19.983648","MEAN_MOTION":14.79584016,"ECCENTRICITY":6.1e-5,"INCLINATION":51.9017,"RA_OF_ASC_NODE":246.5478,"ARG_OF_PERICENTER":225.1923,"MEAN_ANOMALY":134.899,"EPHEMERIS_TYPE":0,"CLASSIFICATION_TYPE":"U","NORAD_CAT_ID":64524,"ELEMENT_SET_NO":999,"REV_AT_EPOCH":3967,"BSTAR":-0.0053336101,"MEAN_MOTION_DOT":-0.00040303,"MEAN_MOTION_DDOT":0},{"OBJECT_NAME":"KUIPER-00065","OBJECT_ID":"2025-134AB","EPOCH":"2026-03-06T12:22:42.555648","MEAN_MOTION":14.79916148,"ECCENTRICITY":7.96e-5,"INCLINATION":51.9024,"RA_OF_ASC_NODE":254.7134,"ARG_OF_PERICENTER":77.5932,"MEAN_ANOMALY":282.5119,"EPHEMERIS_TYPE":0,"CLASSIFICATION_TYPE":"U","NORAD_CAT_ID":64525,"ELEMENT_SET_NO":999,"REV_AT_EPOCH":3948,"BSTAR":0.00054384123,"MEAN_MOTION_DOT":3.925e-5,"MEAN_MOTION_DDOT":0},{"OBJECT_NAME":"KUIPER-00066","OBJECT_ID":"2025-134AC","EPOCH":"2026-03-07T01:51:52.142112","MEAN_MOTION":15.22879988,"ECCENTRICITY":0.00013812,"INCLINATION":51.8711,"RA_OF_ASC_NODE":196.3663,"ARG_OF_PERICENTER":303.3265,"MEAN_ANOMALY":56.7583,"EPHEMERIS_TYPE":0,"CLASSIFICATION_TYPE":"U","NORAD_CAT_ID":64526,"ELEMENT_SET_NO":999,"REV_AT_EPOCH":4036,"BSTAR":0.00095222523,"MEAN_MOTION_DOT":0.00022353,"MEAN_MOTION_DDOT":0},{"OBJECT_NAME":"KUIPER-00069","OBJECT_ID":"2025-151A","EPOCH":"2026-03-06T14:35:06.232992","MEAN_MOTION":14.79924623,"ECCENTRICITY":7.732e-5,"INCLINATION":51.901,"RA_OF_ASC_NODE":294.2531,"ARG_OF_PERICENTER":96.8045,"MEAN_ANOMALY":263.3005,"EPHEMERIS_TYPE":0,"CLASSIFICATION_TYPE":"U","NORAD_CAT_ID":64816,"ELEMENT_SET_NO":999,"REV_AT_EPOCH":3630,"BSTAR":0.00016995032,"MEAN_MOTION_DOT":1.074e-5,"MEAN_MOTION_DDOT":0},{"OBJECT_NAME":"KUIPER-00070","OBJECT_ID":"2025-151B","EPOCH":"2026-03-07T02:05:35.973888","MEAN_MOTION":14.79942958,"ECCENTRICITY":3.478e-5,"INCLINATION":51.9012,"RA_OF_ASC_NODE":317.0716,"ARG_OF_PERICENTER":146.6855,"MEAN_ANOMALY":213.413,"EPHEMERIS_TYPE":0,"CLASSIFICATION_TYPE":"U","NORAD_CAT_ID":64817,"ELEMENT_SET_NO":999,"REV_AT_EPOCH":3603,"BSTAR":0.00043672383,"MEAN_MOTION_DOT":3.111e-5,"MEAN_MOTION_DDOT":0},{"OBJECT_NAME":"KUIPER-00071","OBJECT_ID":"2025-151C","EPOCH":"2026-03-06T01:50:17.253312","MEAN_MOTION":14.80045616,"ECCENTRICITY":5.329e-5,"INCLINATION":51.9023,"RA_OF_ASC_NODE":319.0558,"ARG_OF_PERICENTER":246.6524,"MEAN_ANOMALY":113.4383,"EPHEMERIS_TYPE":0,"CLASSIFICATION_TYPE":"U","NORAD_CAT_ID":64818,"ELEMENT_SET_NO":999,"REV_AT_EPOCH":3473,"BSTAR":0.00070114945,"MEAN_MOTION_DOT":5.142e-5,"MEAN_MOTION_DDOT":0},{"OBJECT_NAME":"KUIPER-00072","OBJECT_ID":"2025-151D","EPOCH":"2026-03-07T00:14:36.117600","MEAN_MOTION":14.79924627,"ECCENTRICITY":0.00011216,"INCLINATION":51.8979,"RA_OF_ASC_NODE":294.9179,"ARG_OF_PERICENTER":101.9085,"MEAN_ANOMALY":258.2003,"EPHEMERIS_TYPE":0,"CLASSIFICATION_TYPE":"U","NORAD_CAT_ID":64819,"ELEMENT_SET_NO":999,"REV_AT_EPOCH":3515,"BSTAR":-0.00014186515,"MEAN_MOTION_DOT":-1.302e-5,"MEAN_MOTION_DDOT":0},{"OBJECT_NAME":"KUIPER-00073","OBJECT_ID":"2025-151E","EPOCH":"2026-03-07T01:20:52.257696","MEAN_MOTION":14.79930601,"ECCENTRICITY":8.875e-5,"INCLINATION":51.9011,"RA_OF_ASC_NODE":314.721,"ARG_OF_PERICENTER":102.7922,"MEAN_ANOMALY":257.3139,"EPHEMERIS_TYPE":0,"CLASSIFICATION_TYPE":"U","NORAD_CAT_ID":64820,"ELEMENT_SET_NO":999,"REV_AT_EPOCH":3606,"BSTAR":0.00058326158,"MEAN_MOTION_DOT":4.228e-5,"MEAN_MOTION_DDOT":0},{"OBJECT_NAME":"KUIPER-00074","OBJECT_ID":"2025-151F","EPOCH":"2026-03-07T06:00:00.999648","MEAN_MOTION":15.04619072,"ECCENTRICITY":0.00011454,"INCLINATION":51.9062,"RA_OF_ASC_NODE":300.51,"ARG_OF_PERICENTER":300.2767,"MEAN_ANOMALY":32.6672,"EPHEMERIS_TYPE":0,"CLASSIFICATION_TYPE":"U","NORAD_CAT_ID":64821,"ELEMENT_SET_NO":999,"REV_AT_EPOCH":409,"BSTAR":0.093075026,"MEAN_MOTION_DOT":0.01427815,"MEAN_MOTION_DDOT":0},{"OBJECT_NAME":"KUIPER-00075","OBJECT_ID":"2025-151G","EPOCH":"2026-03-06T17:30:33.008544","MEAN_MOTION":15.41712492,"ECCENTRICITY":0.00032288,"INCLINATION":51.8697,"RA_OF_ASC_NODE":236.1878,"ARG_OF_PERICENTER":256.6713,"MEAN_ANOMALY":103.3915,"EPHEMERIS_TYPE":0,"CLASSIFICATION_TYPE":"U","NORAD_CAT_ID":64822,"ELEMENT_SET_NO":999,"REV_AT_EPOCH":3594,"BSTAR":0.0018931795,"MEAN_MOTION_DOT":0.00081712,"MEAN_MOTION_DDOT":0},{"OBJECT_NAME":"KUIPER-00076","OBJECT_ID":"2025-151H","EPOCH":"2026-03-07T01:22:35.640480","MEAN_MOTION":14.80491605,"ECCENTRICITY":6.605e-5,"INCLINATION":51.9006,"RA_OF_ASC_NODE":304.6298,"ARG_OF_PERICENTER":17.5886,"MEAN_ANOMALY":342.5099,"EPHEMERIS_TYPE":0,"CLASSIFICATION_TYPE":"U","NORAD_CAT_ID":64823,"ELEMENT_SET_NO":999,"REV_AT_EPOCH":3502,"BSTAR":0.00062229289,"MEAN_MOTION_DOT":4.589e-5,"MEAN_MOTION_DDOT":0},{"OBJECT_NAME":"KUIPER-00077","OBJECT_ID":"2025-151J","EPOCH":"2026-03-06T22:11:53.896704","MEAN_MOTION":14.8016617,"ECCENTRICITY":0.00012314,"INCLINATION":51.9027,"RA_OF_ASC_NODE":310.309,"ARG_OF_PERICENTER":195.9246,"MEAN_ANOMALY":164.1678,"EPHEMERIS_TYPE":0,"CLASSIFICATION_TYPE":"U","NORAD_CAT_ID":64824,"ELEMENT_SET_NO":999,"REV_AT_EPOCH":3493,"BSTAR":0.00057849579,"MEAN_MOTION_DOT":4.216e-5,"MEAN_MOTION_DDOT":0},{"OBJECT_NAME":"KUIPER-00078","OBJECT_ID":"2025-151K","EPOCH":"2026-03-07T00:43:53.398560","MEAN_MOTION":14.79922004,"ECCENTRICITY":5.694e-5,"INCLINATION":51.9006,"RA_OF_ASC_NODE":307.3476,"ARG_OF_PERICENTER":91.0083,"MEAN_ANOMALY":269.0944,"EPHEMERIS_TYPE":0,"CLASSIFICATION_TYPE":"U","NORAD_CAT_ID":64825,"ELEMENT_SET_NO":999,"REV_AT_EPOCH":3498,"BSTAR":0.00026807285,"MEAN_MOTION_DOT":1.823e-5,"MEAN_MOTION_DDOT":0},{"OBJECT_NAME":"KUIPER-00079","OBJECT_ID":"2025-151L","EPOCH":"2026-03-07T03:01:45.801120","MEAN_MOTION":14.79926001,"ECCENTRICITY":3.516e-5,"INCLINATION":51.9013,"RA_OF_ASC_NODE":311.8992,"ARG_OF_PERICENTER":91.2607,"MEAN_ANOMALY":268.8395,"EPHEMERIS_TYPE":0,"CLASSIFICATION_TYPE":"U","NORAD_CAT_ID":64826,"ELEMENT_SET_NO":999,"REV_AT_EPOCH":3612,"BSTAR":9.1120706e-5,"MEAN_MOTION_DOT":4.74e-6,"MEAN_MOTION_DDOT":0}]
